{"fetched_at":"2026-03-29T16:36:15Z","count":15609,"tles":[{"name":"STARLINK-34878","line1":"1 65334U 25189M   26087.79201901  .00019242  00000+0  66000-3 0  9990","line2":"2 65334  53.1590 117.8602 0001570  86.1446 273.9735 15.30206175 34039","category":"Starlink"}]}