{
  "norad_id": 65334,
  "name": "STARLINK-34878",
  "history": [
    {
      "epoch": "2026-03-28T19:00:30.442464Z",
      "apogee_km": 476.2732222246359,
      "perigee_km": 474.12004186411923,
      "latitude_deg": 5.675820110872378e-05,
      "longitude_deg": 6.52601324603757,
      "height_km": 476.021792535951,
      "semi_major_axis_km": 6853.333632044377,
      "eccentricity": 0.00015709,
      "inclination_deg": 53.159,
      "raan_deg": 117.8602,
      "arg_perigee_deg": 86.1446,
      "mean_anomaly_deg": 273.9735,
      "mean_motion_rev_day": 15.30206175
    }
  ]
}